[{"OBJECT_NAME":"STARLINK-32102","OBJECT_ID":"2024-086T","EPOCH":"2026-03-09T00:51:02.773728","MEAN_MOTION":15.27593723,"ECCENTRICITY":9.547e-5,"INCLINATION":43.0039,"RA_OF_ASC_NODE":63.456,"ARG_OF_PERICENTER":211.18,"MEAN_ANOMALY":148.8995,"EPHEMERIS_TYPE":0,"CLASSIFICATION_TYPE":"U","NORAD_CAT_ID":59699,"ELEMENT_SET_NO":999,"REV_AT_EPOCH":10401,"BSTAR":0.0010690606,"MEAN_MOTION_DOT":0.00029285,"MEAN_MOTION_DDOT":0},{"OBJECT_NAME":"HYPERFIELD-1A","OBJECT_ID":"2024-149CY","EPOCH":"2026-03-09T18:21:25.814304","MEAN_MOTION":15.29681349,"ECCENTRICITY":0.00038648,"INCLINATION":97.3842,"RA_OF_ASC_NODE":149.5066,"ARG_OF_PERICENTER":313.7844,"MEAN_ANOMALY":46.3076,"EPHEMERIS_TYPE":0,"CLASSIFICATION_TYPE":"U","NORAD_CAT_ID":60562,"ELEMENT_SET_NO":999,"REV_AT_EPOCH":8683,"BSTAR":0.00030052114,"MEAN_MOTION_DOT":8.569e-5,"MEAN_MOTION_DDOT":0}]
