STARLINK-32102          
1 59699U 24086T   26068.03544877  .00029285  00000+0  10691-2 0  9992
2 59699  43.0039  63.4560 0000954 211.1800 148.8995 15.27593723104018
HYPERFIELD-1A           
1 60562U 24149CY  26068.76488211  .00008569  00000+0  30052-3 0  9998
2 60562  97.3842 149.5066 0003865 313.7844  46.3076 15.29681349 86836
